[{"OBJECT_NAME":"STARLINK-3289","OBJECT_ID":"2021-125T","EPOCH":"2026-03-09T17:10:28.179552","MEAN_MOTION":15.10198828,"ECCENTRICITY":0.00010063,"INCLINATION":53.215,"RA_OF_ASC_NODE":238.9259,"ARG_OF_PERICENTER":143.9291,"MEAN_ANOMALY":216.177,"EPHEMERIS_TYPE":0,"CLASSIFICATION_TYPE":"U","NORAD_CAT_ID":50173,"ELEMENT_SET_NO":999,"REV_AT_EPOCH":23675,"BSTAR":0.0016796134,"MEAN_MOTION_DOT":0.00027564,"MEAN_MOTION_DDOT":0},{"OBJECT_NAME":"OBJECT G","OBJECT_ID":"2026-027G","EPOCH":"2026-03-09T21:53:37.288032","MEAN_MOTION":15.12145257,"ECCENTRICITY":0.00120269,"INCLINATION":97.4906,"RA_OF_ASC_NODE":197.8999,"ARG_OF_PERICENTER":227.3105,"MEAN_ANOMALY":132.7114,"EPHEMERIS_TYPE":0,"CLASSIFICATION_TYPE":"U","NORAD_CAT_ID":67752,"ELEMENT_SET_NO":999,"REV_AT_EPOCH":389,"BSTAR":0.00053594907,"MEAN_MOTION_DOT":9.195e-5,"MEAN_MOTION_DDOT":0}]
